H1 CPF 01  gfz 2022 07 04 00  6851 tandemx   
H2 1003001  6202 36605    2022 07 04 00 59 42 2022 07 09 00 00 42   120 1 1  0 0 0
H9
10 0 59768   5742.000000  0    -223939.770   1668420.913   6668776.713
10 0 59768   5862.000000  0     177889.343   2458910.356   6421539.220
10 0 59768   5982.000000  0     590010.808   3199360.814   6061428.688
10 0 59768   6102.000000  0    1004239.095   3876723.528   5594742.309
10 0 59768   6222.000000  0    1412128.953   4479185.750   5029650.415
10 0 59768   6342.000000  0    1805146.122   4996382.782   4376059.421
10 0 59768   6462.000000  0    2174844.582   5419583.279   3645442.551
10 0 59768   6582.000000  0    2513047.354   5741844.366   2850643.113
10 0 59768   6702.000000  0    2812025.337   5958136.682   2005648.293
10 0 59768   6822.000000  0    3064671.193   6065428.785   1125337.714
10 0 59768   6942.000000  0    3264661.816   6062730.891    225214.935
10 0 59768   7062.000000  0    3406606.533   5951098.355   -678873.135
10 0 59768   7182.000000  0    3486177.904   5733593.356  -1571023.782
10 0 59768   7302.000000  0    3500220.749   5415206.807  -2435565.801
10 0 59768   7422.000000  0    3446837.482   5002742.125  -3257341.683
10 0 59768   7542.000000  0    3325446.398   4504663.414  -4021977.544
10 0 59768   7662.000000  0    3136812.566   3930913.716  -4716133.872
10 0 59768   7782.000000  0    2883051.497   3292709.345  -5327734.694
10 0 59768   7902.000000  0    2567605.979   2602313.569  -5846170.596
10 0 59768   8022.000000  0    2195197.044   1872796.016  -6262472.958
10 0 59768   8142.000000  0    1771750.036   1117783.074  -6569457.412
10 0 59768   8262.000000  0    1304299.332    351204.795  -6761835.786
10 0 59768   8382.000000  0     800871.773   -412957.836  -6836298.884
10 0 59768   8502.000000  0     270349.400  -1160923.207  -6791566.861
10 0 59768   8622.000000  0    -277683.671  -1879350.896  -6628407.110
10 0 59768   8742.000000  0    -833109.307  -2555572.706  -6349623.436
10 0 59768   8862.000000  0   -1385457.828  -3177812.791  -5960014.076
10 0 59768   8982.000000  0   -1924100.320  -3735390.891  -5466297.038
10 0 59768   9102.000000  0   -2438449.096  -4218906.901  -4877006.198
10 0 59768   9222.000000  0   -2918164.465  -4620405.045  -4202355.901
10 0 59768   9342.000000  0   -3353362.632  -4933511.856  -3454073.615
10 0 59768   9462.000000  0   -3734820.014  -5153545.453  -2645204.338
10 0 59768   9582.000000  0   -4054170.647  -5277593.806  -1789888.414
10 0 59768   9702.000000  0   -4304091.316  -5304559.033   -903115.496
10 0 59768   9822.000000  0   -4478469.163  -5235166.062      -459.031
10 0 59768   9942.000000  0   -4572547.118  -5071934.706    902203.334
10 0 59768  10062.000000  0   -4583043.409  -4819115.012   1788977.886
10 0 59768  10182.000000  0   -4508240.848  -4482586.444   2644244.352
10 0 59768  10302.000000  0   -4348044.107  -4069724.606   3452939.261
10 0 59768  10422.000000  0   -4104004.241  -3589239.274   4200827.888
10 0 59768  10542.000000  0   -3779308.954  -3050987.132   4874759.543
10 0 59768  10662.000000  0   -3378739.370  -2465764.389   5462898.834
10 0 59768  10782.000000  0   -2908596.190  -1845086.549   5954930.780
10 0 59768  10902.000000  0   -2376596.273  -1200958.978   6342238.462
10 0 59768  11022.000000  0   -1791741.285   -545641.091   6618049.731
10 0 59768  11142.000000  0   -1164160.143    108589.378   6777548.550
10 0 59768  11262.000000  0    -504932.069    749664.893   6817952.166
10 0 59768  11382.000000  0     174108.694   1365949.829   6738557.158
10 0 59768  11502.000000  0     860584.920   1946451.481   6540751.235
10 0 59768  11622.000000  0    1541801.633   2481016.283   6227989.859
10 0 59768  11742.000000  0    2204979.890   2960507.395   5805739.413
10 0 59768  11862.000000  0    2837496.630   3376963.117   5281388.313
10 0 59768  11982.000000  0    3427127.765   3723733.324   4664123.888
10 0 59768  12102.000000  0    3962287.025   3995588.844   3964775.060
10 0 59768  12222.000000  0    4432257.105   4188804.685   3195628.990
10 0 59768  12342.000000  0    4827412.316   4301214.125   2370214.917
10 0 59768  12462.000000  0    5139418.959   4332229.516   1503063.787
10 0 59768  12582.000000  0    5361415.168   4282832.011    609448.050
10 0 59768  12702.000000  0    5488162.113   4155528.307   -294895.483
10 0 59768  12822.000000  0    5516162.068   3954275.978  -1194052.053
10 0 59768  12942.000000  0    5443741.851   3684379.401  -2072217.323
10 0 59768  13062.000000  0    5271099.163   3352358.705  -2913982.274
10 0 59768  13182.000000  0    5000311.359   2965796.524  -3704607.727
10 0 59768  13302.000000  0    4635307.484   2533166.965  -4430284.468
10 0 59768  13422.000000  0    4181802.948   2063648.806  -5078373.167
10 0 59768  13542.000000  0    3647200.841   1566929.609  -5637617.757
10 0 59768  13662.000000  0    3040462.835   1053006.207  -6098331.960
10 0 59768  13782.000000  0    2371951.894    531984.876  -6452556.534
10 0 59768  13902.000000  0    1653251.341     13885.538  -6694184.453
10 0 59768  14022.000000  0     896964.961   -491546.660  -6819056.326
10 0 59768  14142.000000  0     116497.452   -975020.783  -6825025.112
10 0 59768  14262.000000  0    -674178.505  -1427866.098  -6711987.068
10 0 59768  14382.000000  0   -1460765.617  -1842183.029  -6481883.872
10 0 59768  14502.000000  0   -2228894.819  -2210978.581  -6138673.439
10 0 59768  14622.000000  0   -2964381.934  -2528282.925  -5688268.472
10 0 59768  14742.000000  0   -3653485.583  -2789246.505  -5138445.933
10 0 59768  14862.000000  0   -4283164.914  -2990216.829  -4498724.990
10 0 59768  14982.000000  0   -4841329.657  -3128791.630  -3780212.611
10 0 59768  15102.000000  0   -5317078.115  -3203847.525  -2995420.227
10 0 59768  15222.000000  0   -5700918.499  -3215543.501  -2158052.301
10 0 59768  15342.000000  0   -5984967.152  -3165298.115  -1282769.430
10 0 59768  15462.000000  0   -6163118.702  -3055740.854   -384930.725
10 0 59768  15582.000000  0   -6231183.350  -2890637.929    519680.235
10 0 59768  15702.000000  0   -6186987.780  -2674794.570   1415140.230
10 0 59768  15822.000000  0   -6030434.751  -2413935.516   2285676.944
10 0 59768  15942.000000  0   -5763519.234  -2114566.417   3115955.469
10 0 59768  16062.000000  0   -5390304.445  -1783821.172   3891355.911
10 0 59768  16182.000000  0   -4916853.872  -1429297.504   4598237.657
10 0 59768  16302.000000  0   -4351123.646  -1058885.900   5224180.056
10 0 59768  16422.000000  0   -3702821.159   -680597.500   5758198.923
10 0 59768  16542.000000  0   -2983230.706   -302392.945   6190937.130
10 0 59768  16662.000000  0   -2205008.838     67983.983   6514823.903
10 0 59768  16782.000000  0   -1381955.265    423162.497   6724200.347
10 0 59768  16902.000000  0    -528765.201    756289.152   6815412.239
10 0 59768  17022.000000  0     339233.602   1061158.791   6786869.425
10 0 59768  17142.000000  0    1206355.363   1332329.492   6639071.687
10 0 59768  17262.000000  0    2056838.903   1565220.083   6374600.470
10 0 59768  17382.000000  0    2875133.250   1756187.645   5998076.460
10 0 59768  17502.000000  0    3646183.218   1902584.712   5516084.548
10 0 59768  17622.000000  0    4355709.590   2002794.896   4937063.868
10 0 59768  17742.000000  0    4990477.513   2056247.245   4271166.727
10 0 59768  17862.000000  0    5538552.484   2063408.972   3530086.880
10 0 59768  17982.000000  0    5989534.545   2025754.211   2726853.680
10 0 59768  18102.000000  0    6334762.871   1945711.752   1875603.273
10 0 59768  18222.000000  0    6567491.940   1826591.976    991326.308
10 0 59768  18342.000000  0    6683028.641   1672493.719     89596.842
10 0 59768  18462.000000  0    6678829.589   1488195.498   -813710.278
10 0 59768  18582.000000  0    6554553.852   1279031.955  -1702708.266
10 0 59768  18702.000000  0    6312072.773   1050758.379  -2561784.543
10 0 59768  18822.000000  0    5955435.429    809408.208  -3375881.819
10 0 59768  18942.000000  0    5490790.049    561147.710  -4130765.369
10 0 59768  19062.000000  0    4926265.079    312130.485  -4813271.799
10 0 59768  19182.000000  0    4271813.816     68355.527  -5411533.273
10 0 59768  19302.000000  0    3539028.438   -164467.136  -5915175.373
10 0 59768  19422.000000  0    2740926.809   -381041.011  -6315487.762
10 0 59768  19542.000000  0    1891715.281   -576595.804  -6605563.360
10 0 59768  19662.000000  0    1006535.665   -746986.019  -6780405.802
10 0 59768  19782.000000  0     101197.764   -888774.149  -6837007.614
10 0 59768  19902.000000  0    -808098.302   -999296.214  -6774395.198
10 0 59768  20022.000000  0   -1705044.520  -1076710.186  -6593643.956
10 0 59768  20142.000000  0   -2573511.268  -1120025.976  -6297861.877
10 0 59768  20262.000000  0   -3397830.510  -1129116.792  -5892140.599
10 0 59768  20382.000000  0   -4163073.924  -1104712.154  -5383478.499
10 0 59768  20502.000000  0   -4855324.663  -1048372.092  -4780671.607
10 0 59768  20622.000000  0   -5461934.375   -962442.887  -4094172.684
10 0 59768  20742.000000  0   -5971762.140   -849995.272  -3335920.788
10 0 59768  20862.000000  0   -6375390.597   -714745.492  -2519141.492
10 0 59768  20982.000000  0   -6665312.307   -560960.773  -1658120.373
10 0 59768  21102.000000  0   -6836082.652   -393352.003   -767954.022
10 0 59768  21222.000000  0   -6884434.121   -216954.054    135719.550
10 0 59768  21342.000000  0   -6809345.314    -36997.673   1037002.142
10 0 59768  21462.000000  0   -6612067.426    141222.730   1920022.695
10 0 59768  21582.000000  0   -6296104.430    312482.759   2769226.249
10 0 59768  21702.000000  0   -5867147.334    471760.033   3569656.822
10 0 59768  21822.000000  0   -5332963.947    614360.926   4307227.538
10 0 59768  21942.000000  0   -4703248.518    736038.408   4968971.854
10 0 59768  22062.000000  0   -3989435.217    833098.364   5543271.279
10 0 59768  22182.000000  0   -3204481.475    902492.223   6020056.615
99
